<?xml version="1.0" encoding="UTF-8"?>
<gpx version="1.1" creator="gpx-tracks.org" xmlns="http://www.topografix.com/GPX/1/1">
<metadata>
  <desc>Generated using OpenStreetMap data</desc>
  <author>OpenStreetMap contributors</author>
  <link href="https://www.openstreetmap.org/copyright">
    <text>OpenStreetMap License</text>
  </link>
</metadata>
  <trk>
    <trkseg>
      <trkpt lat="46.0734974" lon="11.1717214"></trkpt>
      <trkpt lat="46.0737836" lon="11.1727025"></trkpt>
      <trkpt lat="46.0740203" lon="11.1731432"></trkpt>
      <trkpt lat="46.0740168" lon="11.173328"></trkpt>
      <trkpt lat="46.0737622" lon="11.173827"></trkpt>
      <trkpt lat="46.0734375" lon="11.1738863"></trkpt>
      <trkpt lat="46.0731624" lon="11.1743486"></trkpt>
      <trkpt lat="46.0730316" lon="11.1748916"></trkpt>
      <trkpt lat="46.0728944" lon="11.175002"></trkpt>
      <trkpt lat="46.0728165" lon="11.1750598"></trkpt>
      <trkpt lat="46.0725141" lon="11.1752516"></trkpt>
      <trkpt lat="46.0724562" lon="11.1752923"></trkpt>
      <trkpt lat="46.072404" lon="11.1755511"></trkpt>
      <trkpt lat="46.0723352" lon="11.1757355"></trkpt>
      <trkpt lat="46.072069" lon="11.1762407"></trkpt>
      <trkpt lat="46.0717648" lon="11.1767315"></trkpt>
      <trkpt lat="46.0719912" lon="11.1768785"></trkpt>
      <trkpt lat="46.0720172" lon="11.1772164"></trkpt>
      <trkpt lat="46.0720284" lon="11.1788472"></trkpt>
      <trkpt lat="46.0720172" lon="11.1800435"></trkpt>
      <trkpt lat="46.0721118" lon="11.1805194"></trkpt>
      <trkpt lat="46.0722225" lon="11.1802648"></trkpt>
      <trkpt lat="46.0722136" lon="11.1799061"></trkpt>
      <trkpt lat="46.0722908" lon="11.1798927"></trkpt>
      <trkpt lat="46.0723185" lon="11.1801444"></trkpt>
      <trkpt lat="46.0723926" lon="11.1799338"></trkpt>
      <trkpt lat="46.0726239" lon="11.17992"></trkpt>
      <trkpt lat="46.0726283" lon="11.1807755"></trkpt>
      <trkpt lat="46.0727848" lon="11.1808579"></trkpt>
      <trkpt lat="46.0728563" lon="11.1806364"></trkpt>
      <trkpt lat="46.0729224" lon="11.1806719"></trkpt>
      <trkpt lat="46.0730825" lon="11.1810204"></trkpt>
      <trkpt lat="46.0734128" lon="11.1811378"></trkpt>
      <trkpt lat="46.0738276" lon="11.1810573"></trkpt>
      <trkpt lat="46.0741403" lon="11.1811643"></trkpt>
      <trkpt lat="46.0743251" lon="11.1812466"></trkpt>
      <trkpt lat="46.0745456" lon="11.1815105"></trkpt>
      <trkpt lat="46.0745694" lon="11.1814247"></trkpt>
      <trkpt lat="46.0746536" lon="11.1813296"></trkpt>
      <trkpt lat="46.0747034" lon="11.1812759"></trkpt>
      <trkpt lat="46.0747419" lon="11.1812238"></trkpt>
      <trkpt lat="46.0747674" lon="11.1811396"></trkpt>
      <trkpt lat="46.0748016" lon="11.1810041"></trkpt>
      <trkpt lat="46.0748958" lon="11.180834"></trkpt>
      <trkpt lat="46.0749676" lon="11.1808063"></trkpt>
      <trkpt lat="46.0750275" lon="11.1808043"></trkpt>
      <trkpt lat="46.0750713" lon="11.1808199"></trkpt>
      <trkpt lat="46.0751227" lon="11.1808581"></trkpt>
      <trkpt lat="46.0751844" lon="11.1809787"></trkpt>
      <trkpt lat="46.075376" lon="11.181141"></trkpt>
      <trkpt lat="46.0754095" lon="11.1811423"></trkpt>
      <trkpt lat="46.0753928" lon="11.1810619"></trkpt>
      <trkpt lat="46.0754012" lon="11.1808969"></trkpt>
      <trkpt lat="46.0754328" lon="11.1808433"></trkpt>
      <trkpt lat="46.0754784" lon="11.1808151"></trkpt>
      <trkpt lat="46.075496" lon="11.1807588"></trkpt>
      <trkpt lat="46.0755334" lon="11.1807545"></trkpt>
      <trkpt lat="46.0756347" lon="11.180862"></trkpt>
      <trkpt lat="46.0756635" lon="11.1809009"></trkpt>
      <trkpt lat="46.0757185" lon="11.180853"></trkpt>
      <trkpt lat="46.0757277" lon="11.1805978"></trkpt>
      <trkpt lat="46.0757454" lon="11.1805563"></trkpt>
      <trkpt lat="46.0757621" lon="11.1805402"></trkpt>
      <trkpt lat="46.0758459" lon="11.1805174"></trkpt>
      <trkpt lat="46.0758589" lon="11.1804436"></trkpt>
      <trkpt lat="46.0758686" lon="11.1803745"></trkpt>
      <trkpt lat="46.0759105" lon="11.1803893"></trkpt>
      <trkpt lat="46.0759901" lon="11.1806227"></trkpt>
      <trkpt lat="46.0760556" lon="11.1807366"></trkpt>
      <trkpt lat="46.0761226" lon="11.1808131"></trkpt>
      <trkpt lat="46.0762064" lon="11.1810364"></trkpt>
      <trkpt lat="46.0763157" lon="11.1811725"></trkpt>
      <trkpt lat="46.0763519" lon="11.1812443"></trkpt>
      <trkpt lat="46.0763864" lon="11.1813696"></trkpt>
      <trkpt lat="46.0764278" lon="11.18155"></trkpt>
      <trkpt lat="46.0764552" lon="11.1816278"></trkpt>
      <trkpt lat="46.0764687" lon="11.1817311"></trkpt>
      <trkpt lat="46.0764668" lon="11.1818739"></trkpt>
      <trkpt lat="46.0764854" lon="11.1820818"></trkpt>
      <trkpt lat="46.0765036" lon="11.1820791"></trkpt>
      <trkpt lat="46.0765227" lon="11.1820858"></trkpt>
      <trkpt lat="46.0765534" lon="11.1821227"></trkpt>
      <trkpt lat="46.076571" lon="11.1821428"></trkpt>
      <trkpt lat="46.0766593" lon="11.1821455"></trkpt>
      <trkpt lat="46.0767188" lon="11.1821541"></trkpt>
      <trkpt lat="46.0767724" lon="11.182137"></trkpt>
      <trkpt lat="46.076832" lon="11.182094"></trkpt>
      <trkpt lat="46.0768736" lon="11.182094"></trkpt>
      <trkpt lat="46.076926" lon="11.1820234"></trkpt>
      <trkpt lat="46.0770264" lon="11.181951"></trkpt>
      <trkpt lat="46.0770761" lon="11.1818795"></trkpt>
      <trkpt lat="46.0771146" lon="11.1818551"></trkpt>
      <trkpt lat="46.0771341" lon="11.181782"></trkpt>
      <trkpt lat="46.0772011" lon="11.181726"></trkpt>
      <trkpt lat="46.0772602" lon="11.1816238"></trkpt>
      <trkpt lat="46.0772797" lon="11.1815286"></trkpt>
      <trkpt lat="46.0773192" lon="11.1814008"></trkpt>
      <trkpt lat="46.0773448" lon="11.1813569"></trkpt>
      <trkpt lat="46.0773667" lon="11.1813566"></trkpt>
      <trkpt lat="46.0774069" lon="11.1814213"></trkpt>
      <trkpt lat="46.0774299" lon="11.1815192"></trkpt>
      <trkpt lat="46.0774686" lon="11.1816053"></trkpt>
      <trkpt lat="46.0775411" lon="11.1816791"></trkpt>
      <trkpt lat="46.0775388" lon="11.181726"></trkpt>
      <trkpt lat="46.0775304" lon="11.1817693"></trkpt>
      <trkpt lat="46.0775539" lon="11.1818146"></trkpt>
      <trkpt lat="46.0775432" lon="11.1819547"></trkpt>
      <trkpt lat="46.0775551" lon="11.1820271"></trkpt>
      <trkpt lat="46.0775541" lon="11.1820861"></trkpt>
      <trkpt lat="46.0775679" lon="11.1820969"></trkpt>
      <trkpt lat="46.0775997" lon="11.1820389"></trkpt>
      <trkpt lat="46.0776139" lon="11.1820727"></trkpt>
      <trkpt lat="46.0776579" lon="11.1820741"></trkpt>
      <trkpt lat="46.0776969" lon="11.1820305"></trkpt>
      <trkpt lat="46.0777239" lon="11.1819842"></trkpt>
      <trkpt lat="46.0778093" lon="11.18194"></trkpt>
      <trkpt lat="46.0778486" lon="11.1818819"></trkpt>
      <trkpt lat="46.0778639" lon="11.1818494"></trkpt>
      <trkpt lat="46.0778981" lon="11.181775"></trkpt>
      <trkpt lat="46.0779265" lon="11.181716"></trkpt>
      <trkpt lat="46.077946" lon="11.1816342"></trkpt>
      <trkpt lat="46.0779177" lon="11.1815296"></trkpt>
      <trkpt lat="46.0778335" lon="11.1814002"></trkpt>
      <trkpt lat="46.0778267" lon="11.1813629"></trkpt>
      <trkpt lat="46.0778358" lon="11.1813422"></trkpt>
      <trkpt lat="46.0778809" lon="11.1813593"></trkpt>
      <trkpt lat="46.0778616" lon="11.181319"></trkpt>
      <trkpt lat="46.0778525" lon="11.1812818"></trkpt>
      <trkpt lat="46.0778458" lon="11.1812563"></trkpt>
      <trkpt lat="46.0778409" lon="11.1812158"></trkpt>
      <trkpt lat="46.077839" lon="11.1811453"></trkpt>
      <trkpt lat="46.0778256" lon="11.181094"></trkpt>
      <trkpt lat="46.0778302" lon="11.1810444"></trkpt>
      <trkpt lat="46.0778497" lon="11.1810324"></trkpt>
      <trkpt lat="46.0778711" lon="11.1810431"></trkpt>
      <trkpt lat="46.0779009" lon="11.1810753"></trkpt>
      <trkpt lat="46.077927" lon="11.1811544"></trkpt>
      <trkpt lat="46.0780051" lon="11.1811987"></trkpt>
      <trkpt lat="46.0780256" lon="11.1812268"></trkpt>
      <trkpt lat="46.0780488" lon="11.1813167"></trkpt>
      <trkpt lat="46.0780926" lon="11.1813314"></trkpt>
      <trkpt lat="46.0781961" lon="11.1815243"></trkpt>
      <trkpt lat="46.0782544" lon="11.1816743"></trkpt>
      <trkpt lat="46.0782983" lon="11.1817455"></trkpt>
      <trkpt lat="46.0783595" lon="11.1818089"></trkpt>
      <trkpt lat="46.0783972" lon="11.1818846"></trkpt>
      <trkpt lat="46.078414" lon="11.1819524"></trkpt>
      <trkpt lat="46.0785307" lon="11.1819718"></trkpt>
      <trkpt lat="46.0785335" lon="11.1819282"></trkpt>
      <trkpt lat="46.0785065" lon="11.181827"></trkpt>
      <trkpt lat="46.0784665" lon="11.1816969"></trkpt>
      <trkpt lat="46.0784665" lon="11.1816385"></trkpt>
      <trkpt lat="46.0784833" lon="11.1816533"></trkpt>
      <trkpt lat="46.0785372" lon="11.1817002"></trkpt>
      <trkpt lat="46.0785489" lon="11.1816848"></trkpt>
      <trkpt lat="46.0785493" lon="11.1816446"></trkpt>
      <trkpt lat="46.0785368" lon="11.1815608"></trkpt>
      <trkpt lat="46.0785516" lon="11.1814865"></trkpt>
      <trkpt lat="46.0785824" lon="11.1813216"></trkpt>
      <trkpt lat="46.0785586" lon="11.1812014"></trkpt>
      <trkpt lat="46.0785149" lon="11.1811034"></trkpt>
      <trkpt lat="46.0785182" lon="11.1810022"></trkpt>
      <trkpt lat="46.0785517" lon="11.1809231"></trkpt>
      <trkpt lat="46.0785521" lon="11.1808567"></trkpt>
      <trkpt lat="46.0785265" lon="11.1807474"></trkpt>
      <trkpt lat="46.0785424" lon="11.180689"></trkpt>
      <trkpt lat="46.0785879" lon="11.1806582"></trkpt>
      <trkpt lat="46.0786135" lon="11.1805616"></trkpt>
      <trkpt lat="46.0786238" lon="11.1804657"></trkpt>
      <trkpt lat="46.0785847" lon="11.1803544"></trkpt>
      <trkpt lat="46.0785461" lon="11.1802988"></trkpt>
      <trkpt lat="46.0785382" lon="11.1801915"></trkpt>
      <trkpt lat="46.0785558" lon="11.1800064"></trkpt>
      <trkpt lat="46.0785679" lon="11.1798093"></trkpt>
      <trkpt lat="46.078553" lon="11.1796369"></trkpt>
      <trkpt lat="46.078567" lon="11.1795799"></trkpt>
      <trkpt lat="46.0785819" lon="11.1793613"></trkpt>
      <trkpt lat="46.078587" lon="11.1793003"></trkpt>
      <trkpt lat="46.0785847" lon="11.179189"></trkpt>
      <trkpt lat="46.07862" lon="11.1790321"></trkpt>
      <trkpt lat="46.0786242" lon="11.1787511"></trkpt>
      <trkpt lat="46.0786196" lon="11.1786492"></trkpt>
      <trkpt lat="46.0786447" lon="11.1785379"></trkpt>
      <trkpt lat="46.07868" lon="11.1783374"></trkpt>
      <trkpt lat="46.0786963" lon="11.1781503"></trkpt>
      <trkpt lat="46.0787963" lon="11.1779109"></trkpt>
      <trkpt lat="46.0788196" lon="11.1778526"></trkpt>
      <trkpt lat="46.0788233" lon="11.1777218"></trkpt>
      <trkpt lat="46.0790385" lon="11.1777575"></trkpt>
      <trkpt lat="46.0788233" lon="11.1777218"></trkpt>
      <trkpt lat="46.0788061" lon="11.1776608"></trkpt>
      <trkpt lat="46.0787759" lon="11.1776025"></trkpt>
      <trkpt lat="46.0787563" lon="11.1774925"></trkpt>
      <trkpt lat="46.0787438" lon="11.1773356"></trkpt>
      <trkpt lat="46.0787307" lon="11.1772605"></trkpt>
      <trkpt lat="46.0787326" lon="11.1771244"></trkpt>
      <trkpt lat="46.0787084" lon="11.177007"></trkpt>
      <trkpt lat="46.0787052" lon="11.1769152"></trkpt>
      <trkpt lat="46.0787089" lon="11.1768146"></trkpt>
      <trkpt lat="46.0787228" lon="11.1767039"></trkpt>
      <trkpt lat="46.0787275" lon="11.1765967"></trkpt>
      <trkpt lat="46.07872" lon="11.1764585"></trkpt>
      <trkpt lat="46.0787028" lon="11.1763646"></trkpt>
      <trkpt lat="46.0786931" lon="11.1763016"></trkpt>
      <trkpt lat="46.078601" lon="11.1760743"></trkpt>
      <trkpt lat="46.0785712" lon="11.1759757"></trkpt>
      <trkpt lat="46.0785512" lon="11.1758805"></trkpt>
      <trkpt lat="46.0785484" lon="11.1758215"></trkpt>
      <trkpt lat="46.07854" lon="11.1757893"></trkpt>
      <trkpt lat="46.0785056" lon="11.1757209"></trkpt>
      <trkpt lat="46.0784298" lon="11.1755888"></trkpt>
      <trkpt lat="46.078254" lon="11.1753266"></trkpt>
      <trkpt lat="46.0781302" lon="11.175167"></trkpt>
      <trkpt lat="46.0780882" lon="11.1751074"></trkpt>
      <trkpt lat="46.0780474" lon="11.1750403"></trkpt>
      <trkpt lat="46.0779777" lon="11.1749028"></trkpt>
      <trkpt lat="46.0779811" lon="11.1748328"></trkpt>
      <trkpt lat="46.0779763" lon="11.1748002"></trkpt>
      <trkpt lat="46.077947" lon="11.1747473"></trkpt>
      <trkpt lat="46.0779046" lon="11.1746809"></trkpt>
      <trkpt lat="46.0777967" lon="11.1744864"></trkpt>
      <trkpt lat="46.0777428" lon="11.1744308"></trkpt>
      <trkpt lat="46.0776577" lon="11.1743088"></trkpt>
      <trkpt lat="46.0776162" lon="11.1743094"></trkpt>
      <trkpt lat="46.0775548" lon="11.1743148"></trkpt>
      <trkpt lat="46.0774125" lon="11.1743456"></trkpt>
      <trkpt lat="46.0772981" lon="11.1743966"></trkpt>
      <trkpt lat="46.0769855" lon="11.1745763"></trkpt>
      <trkpt lat="46.0768152" lon="11.1746366"></trkpt>
      <trkpt lat="46.0767036" lon="11.1746822"></trkpt>
      <trkpt lat="46.076591" lon="11.1747238"></trkpt>
      <trkpt lat="46.0764757" lon="11.1747064"></trkpt>
      <trkpt lat="46.0764171" lon="11.1747345"></trkpt>
      <trkpt lat="46.0763036" lon="11.174752"></trkpt>
      <trkpt lat="46.076218" lon="11.1748029"></trkpt>
      <trkpt lat="46.0760784" lon="11.1748512"></trkpt>
      <trkpt lat="46.0760031" lon="11.1748955"></trkpt>
      <trkpt lat="46.0758477" lon="11.174929"></trkpt>
      <trkpt lat="46.0757668" lon="11.1749732"></trkpt>
      <trkpt lat="46.0755068" lon="11.1749063"></trkpt>
      <trkpt lat="46.0751974" lon="11.1749093"></trkpt>
      <trkpt lat="46.0748717" lon="11.1743811"></trkpt>
      <trkpt lat="46.0746653" lon="11.1743811"></trkpt>
      <trkpt lat="46.0746002" lon="11.1743811"></trkpt>
      <trkpt lat="46.0742637" lon="11.1743798"></trkpt>
      <trkpt lat="46.07403" lon="11.174376"></trkpt>
      <trkpt lat="46.0739346" lon="11.1741839"></trkpt>
      <trkpt lat="46.0737622" lon="11.173827"></trkpt>
      <trkpt lat="46.0740168" lon="11.173328"></trkpt>
      <trkpt lat="46.0740203" lon="11.1731432"></trkpt>
      <trkpt lat="46.0737836" lon="11.1727025"></trkpt>
      <trkpt lat="46.0734974" lon="11.1717214"></trkpt>
    </trkseg>
  </trk>
</gpx>